{"type": "FeatureCollection", "features": [{"type": "Feature", "properties": {"norad_id": 22490, "name": "SCD 1", "group": "resource", "lat": 3.288903868002406, "lon": 124.56248783060101, "alt_km": 739.3397917806433, "timestamp": "2025-12-07T09:35:09.448290+00:00", "meta": {"OBJECT_NAME": "SCD 1", "OBJECT_ID": "1993-009B", "EPOCH": "2025-12-06T15:18:49.694688", "MEAN_MOTION": 14.45992193, "ECCENTRICITY": 0.00417417, "INCLINATION": 24.9707, "RA_OF_ASC_NODE": 316.3528, "ARG_OF_PERICENTER": 260.1107, "MEAN_ANOMALY": 261.2359, "EPHEMERIS_TYPE": 0, "CLASSIFICATION_TYPE": "U", "NORAD_CAT_ID": 22490, "ELEMENT_SET_NO": 999, "REV_AT_EPOCH": 73321, "BSTAR": 0.00017593214, "MEAN_MOTION_DOT": 8.3e-06, "MEAN_MOTION_DDOT": 0}, "tle": {"line1": "1 22490U 93009B   25340.63807517  .00000830  00000+0  17593-3 0  9997", "line2": "2 22490  24.9707 316.3528 0041741 260.1107 261.2359 14.45992193733211"}}, "geometry": {"type": "Point", "coordinates": [124.56248783060101, 3.288903868002406]}}, {"type": "Feature", "properties": {"norad_id": 25397, "name": "TECHSAT 1B (GO-32)", "group": "resource", "lat": 19.031109808896954, "lon": 147.61903819815404, "alt_km": 810.8845957000158, "timestamp": "2025-12-07T09:35:09.448318+00:00", "meta": {"OBJECT_NAME": "TECHSAT 1B (GO-32)", "OBJECT_ID": "1998-043D", "EPOCH": "2025-12-06T22:43:09.090336", "MEAN_MOTION": 14.24374547, "ECCENTRICITY": 0.00021824, "INCLINATION": 98.9913, "RA_OF_ASC_NODE": 324.0252, "ARG_OF_PERICENTER": 66.7011, "MEAN_ANOMALY": 293.4397, "EPHEMERIS_TYPE": 0, "CLASSIFICATION_TYPE": "U", "NORAD_CAT_ID": 25397, "ELEMENT_SET_NO": 999, "REV_AT_EPOCH": 42396, "BSTAR": 0.00010088811, "MEAN_MOTION_DOT": 1.87e-06, "MEAN_MOTION_DDOT": 0}, "tle": {"line1": "1 25397U 98043D   25340.94663299  .00000187  00000+0  10089-3 0  9998", "line2": "2 25397  98.9913 324.0252 0002182  66.7011 293.4397 14.24374547423961"}}, "geometry": {"type": "Point", "coordinates": [147.61903819815404, 19.031109808896954]}}, {"type": "Feature", "properties": {"norad_id": 25504, "name": "SCD 2", "group": "resource", "lat": -14.277564232541891, "lon": 27.938482704219137, "alt_km": 731.3591511110144, "timestamp": "2025-12-07T09:35:09.448334+00:00", "meta": {"OBJECT_NAME": "SCD 2", "OBJECT_ID": "1998-060A", "EPOCH": "2025-12-06T23:11:38.511744", "MEAN_MOTION": 14.45418331, "ECCENTRICITY": 0.00165973, "INCLINATION": 24.9933, "RA_OF_ASC_NODE": 177.4964, "ARG_OF_PERICENTER": 251.7936, "MEAN_ANOMALY": 226.3444, "EPHEMERIS_TYPE": 0, "CLASSIFICATION_TYPE": "U", "NORAD_CAT_ID": 25504, "ELEMENT_SET_NO": 999, "REV_AT_EPOCH": 43248, "BSTAR": 0.00012678595, "MEAN_MOTION_DOT": 6.36e-06, "MEAN_MOTION_DDOT": 0}, "tle": {"line1": "1 25504U 98060A   25340.96641796  .00000636  00000+0  12679-3 0  9993", "line2": "2 25504  24.9933 177.4964 0016597 251.7936 226.3444 14.45418331432487"}}, "geometry": {"type": "Point", "coordinates": [27.938482704219137, -14.277564232541891]}}, {"type": "Feature", "properties": {"norad_id": 25757, "name": "DLR-TUBSAT", "group": "resource", "lat": -21.68240422669144, "lon": 142.2761673924418, "alt_km": 713.7160927175992, "timestamp": "2025-12-07T09:35:09.448347+00:00", "meta": {"OBJECT_NAME": "DLR-TUBSAT", "OBJECT_ID": "1999-029B", "EPOCH": "2025-12-06T22:44:18.051360", "MEAN_MOTION": 14.5235422, "ECCENTRICITY": 0.00135865, "INCLINATION": 98.6558, "RA_OF_ASC_NODE": 325.2826, "ARG_OF_PERICENTER": 210.9605, "MEAN_ANOMALY": 149.079, "EPHEMERIS_TYPE": 0, "CLASSIFICATION_TYPE": "U", "NORAD_CAT_ID": 25757, "ELEMENT_SET_NO": 999, "REV_AT_EPOCH": 40534, "BSTAR": 8.0076711e-05, "MEAN_MOTION_DOT": 2.78e-06, "MEAN_MOTION_DDOT": 0}, "tle": {"line1": "1 25757U 99029B   25340.94743115  .00000278  00000+0  80077-4 0  9995", "line2": "2 25757  98.6558 325.2826 0013586 210.9605 149.0790 14.52354220405347"}}, "geometry": {"type": "Point", "coordinates": [142.2761673924418, -21.68240422669144]}}, {"type": "Feature", "properties": {"norad_id": 25994, "name": "TERRA", "group": "resource", "lat": 76.33070768349269, "lon": -111.51812117242764, "alt_km": 680.4577125579872, "timestamp": "2025-12-07T09:35:09.448360+00:00", "meta": {"OBJECT_NAME": "TERRA", "OBJECT_ID": "1999-068A", "EPOCH": "2025-12-06T22:24:27.942336", "MEAN_MOTION": 14.6094236, "ECCENTRICITY": 0.00035044, "INCLINATION": 97.9756, "RA_OF_ASC_NODE": 32.831, "ARG_OF_PERICENTER": 109.6003, "MEAN_ANOMALY": 63.375, "EPHEMERIS_TYPE": 0, "CLASSIFICATION_TYPE": "U", "NORAD_CAT_ID": 25994, "ELEMENT_SET_NO": 999, "REV_AT_EPOCH": 38153, "BSTAR": 0.00020421444, "MEAN_MOTION_DOT": 9.56e-06, "MEAN_MOTION_DDOT": 0}, "tle": {"line1": "1 25994U 99068A   25340.93365674  .00000956  00000+0  20421-3 0  9999", "line2": "2 25994  97.9756  32.8310 0003504 109.6003  63.3750 14.60942360381531"}}, "geometry": {"type": "Point", "coordinates": [-111.51812117242764, 76.33070768349269]}}, {"type": "Feature", "properties": {"norad_id": 27004, "name": "MAROC-TUBSAT", "group": "resource", "lat": 29.33322374508839, "lon": 144.18223960129583, "alt_km": 1003.1359156070876, "timestamp": "2025-12-07T09:35:09.448372+00:00", "meta": {"OBJECT_NAME": "MAROC-TUBSAT", "OBJECT_ID": "2001-056D", "EPOCH": "2025-12-06T23:29:03.374592", "MEAN_MOTION": 13.70252467, "ECCENTRICITY": 0.00190892, "INCLINATION": 99.7911, "RA_OF_ASC_NODE": 149.3225, "ARG_OF_PERICENTER": 275.4847, "MEAN_ANOMALY": 199.0217, "EPHEMERIS_TYPE": 0, "CLASSIFICATION_TYPE": "U", "NORAD_CAT_ID": 27004, "ELEMENT_SET_NO": 999, "REV_AT_EPOCH": 19986, "BSTAR": 3.350814e-05, "MEAN_MOTION_DOT": -1.7e-07, "MEAN_MOTION_DDOT": 0}, "tle": {"line1": "1 27004U 01056D   25340.97851128 -.00000017  00000+0  33508-4 0  9991", "line2": "2 27004  99.7911 149.3225 0019089 275.4847 199.0217 13.70252467199860"}}, "geometry": {"type": "Point", "coordinates": [144.18223960129583, 29.33322374508839]}}, {"type": "Feature", "properties": {"norad_id": 27424, "name": "AQUA", "group": "resource", "lat": -40.63356863641213, "lon": -50.52113626484246, "alt_km": 694.5058822133633, "timestamp": "2025-12-07T09:35:09.448384+00:00", "meta": {"OBJECT_NAME": "AQUA", "OBJECT_ID": "2002-022A", "EPOCH": "2025-12-06T22:38:08.413152", "MEAN_MOTION": 14.61788081, "ECCENTRICITY": 9.064e-05, "INCLINATION": 98.403, "RA_OF_ASC_NODE": 301.7279, "ARG_OF_PERICENTER": 113.341, "MEAN_ANOMALY": 325.9574, "EPHEMERIS_TYPE": 0, "CLASSIFICATION_TYPE": "U", "NORAD_CAT_ID": 27424, "ELEMENT_SET_NO": 999, "REV_AT_EPOCH": 25518, "BSTAR": 0.00043242878, "MEAN_MOTION_DOT": 2.109e-05, "MEAN_MOTION_DDOT": 0}, "tle": {"line1": "1 27424U 02022A   25340.94315293  .00002109  00000+0  43243-3 0  9995", "line2": "2 27424  98.4030 301.7279 0000906 113.3410 325.9574 14.61788081255182"}}, "geometry": {"type": "Point", "coordinates": [-50.52113626484246, -40.63356863641213]}}, {"type": "Feature", "properties": {"norad_id": 28051, "name": "IRS-P6 (RESOURCESAT-1)", "group": "resource", "lat": -41.553815543743305, "lon": 29.414197462378464, "alt_km": 801.5565935513469, "timestamp": "2025-12-07T09:35:09.448395+00:00", "meta": {"OBJECT_NAME": "IRS-P6 (RESOURCESAT-1)", "OBJECT_ID": "2003-046A", "EPOCH": "2025-12-06T22:19:49.069920", "MEAN_MOTION": 14.3607078, "ECCENTRICITY": 0.00638644, "INCLINATION": 98.2186, "RA_OF_ASC_NODE": 21.6066, "ARG_OF_PERICENTER": 198.1565, "MEAN_ANOMALY": 216.0439, "EPHEMERIS_TYPE": 0, "CLASSIFICATION_TYPE": "U", "NORAD_CAT_ID": 28051, "ELEMENT_SET_NO": 999, "REV_AT_EPOCH": 15293, "BSTAR": 0.00014937835, "MEAN_MOTION_DOT": 4.04e-06, "MEAN_MOTION_DDOT": 0}, "tle": {"line1": "1 28051U 03046A   25340.93042905  .00000404  00000+0  14938-3 0  9990", "line2": "2 28051  98.2186  21.6066 0063864 198.1565 216.0439 14.36070780152936"}}, "geometry": {"type": "Point", "coordinates": [29.414197462378464, -41.553815543743305]}}, {"type": "Feature", "properties": {"norad_id": 28220, "name": "SHIYAN-1 (SY-1)", "group": "resource", "lat": -45.09368756809686, "lon": -145.37838033945374, "alt_km": 490.8555386160042, "timestamp": "2025-12-07T09:35:09.448407+00:00", "meta": {"OBJECT_NAME": "SHIYAN-1 (SY-1)", "OBJECT_ID": "2004-012A", "EPOCH": "2025-12-06T16:53:01.939488", "MEAN_MOTION": 15.27912296, "ECCENTRICITY": 0.00059862, "INCLINATION": 97.8942, "RA_OF_ASC_NODE": 41.887, "ARG_OF_PERICENTER": 348.9439, "MEAN_ANOMALY": 11.1666, "EPHEMERIS_TYPE": 0, "CLASSIFICATION_TYPE": "U", "NORAD_CAT_ID": 28220, "ELEMENT_SET_NO": 999, "REV_AT_EPOCH": 18164, "BSTAR": 0.00077086221, "MEAN_MOTION_DOT": 0.00020968, "MEAN_MOTION_DDOT": 0}, "tle": {"line1": "1 28220U 04012A   25340.70349467  .00020968  00000+0  77086-3 0  9990", "line2": "2 28220  97.8942  41.8870 0005986 348.9439  11.1666 15.27912296181646"}}, "geometry": {"type": "Point", "coordinates": [-145.37838033945374, -45.09368756809686]}}, {"type": "Feature", "properties": {"norad_id": 28376, "name": "AURA", "group": "resource", "lat": 71.25861336124996, "lon": 137.1444894800252, "alt_km": 682.4959633184526, "timestamp": "2025-12-07T09:35:09.448418+00:00", "meta": {"OBJECT_NAME": "AURA", "OBJECT_ID": "2004-026A", "EPOCH": "2025-12-06T21:35:32.929152", "MEAN_MOTION": 14.60925693, "ECCENTRICITY": 0.00011619, "INCLINATION": 98.3178, "RA_OF_ASC_NODE": 291.0992, "ARG_OF_PERICENTER": 93.1743, "MEAN_ANOMALY": 266.959, "EPHEMERIS_TYPE": 0, "CLASSIFICATION_TYPE": "U", "NORAD_CAT_ID": 28376, "ELEMENT_SET_NO": 999, "REV_AT_EPOCH": 13813, "BSTAR": 0.00044316119, "MEAN_MOTION_DOT": 2.122e-05, "MEAN_MOTION_DDOT": 0}, "tle": {"line1": "1 28376U 04026A   25340.89968668  .00002122  00000+0  44316-3 0  9999", "line2": "2 28376  98.3178 291.0992 0001161  93.1743 266.9590 14.60925693138130"}}, "geometry": {"type": "Point", "coordinates": [137.1444894800252, 71.25861336124996]}}]}